[{"OBJECT_NAME":"STARLINK-3675","OBJECT_ID":"2022-025H","EPOCH":"2026-03-09T04:04:59.875680","MEAN_MOTION":15.30188338,"ECCENTRICITY":0.00013782,"INCLINATION":53.1619,"RA_OF_ASC_NODE":15.9713,"ARG_OF_PERICENTER":90.338,"MEAN_ANOMALY":269.7779,"EPHEMERIS_TYPE":0,"CLASSIFICATION_TYPE":"U","NORAD_CAT_ID":51963,"ELEMENT_SET_NO":999,"REV_AT_EPOCH":22109,"BSTAR":-0.00010047767,"MEAN_MOTION_DOT":-3.333e-5,"MEAN_MOTION_DDOT":0},{"OBJECT_NAME":"OBJECT AL","OBJECT_ID":"2023-085AL","EPOCH":"2026-03-09T22:26:04.970400","MEAN_MOTION":15.31857284,"ECCENTRICITY":0.000802,"INCLINATION":97.4839,"RA_OF_ASC_NODE":180.0127,"ARG_OF_PERICENTER":78.7242,"MEAN_ANOMALY":281.49,"EPHEMERIS_TYPE":0,"CLASSIFICATION_TYPE":"U","NORAD_CAT_ID":57038,"ELEMENT_SET_NO":999,"REV_AT_EPOCH":15154,"BSTAR":0.0006591637,"MEAN_MOTION_DOT":0.00020246,"MEAN_MOTION_DDOT":0}]
